ONEWEB-0199             
1 48234U 21031AA  25074.57567805 -.00000125  00000+0 -37083-3 0  9992
2 48234  87.9070  20.8798 0002034  83.0124 277.1237 13.14504599188013
ONEWEB-0203             
1 48235U 21031AB  25074.56615982 -.00000117  00000+0 -34984-3 0  9990
2 48235  87.9074  20.8841 0002288  78.0082 282.1304 13.14504817188020
ONEWEB-0197             
1 48236U 21031AC  25074.54159607  .00000187  00000+0  47005-3 0  9999
2 48236  87.9076  20.8999 0001707  89.5692 270.5633 13.14502069187938
ONEWEB-0194             
1 48237U 21031AD  25074.90076436  .00000119  00000+0  28653-3 0  9991
2 48237  87.9074  20.8239 0002161  81.5619 278.5755 13.14504642188157
ONEWEB-0193             
1 48238U 21031AE  25074.53604405  .00000235  00000+0  59866-3 0  9993
2 48238  87.9074  20.9041 0001975  76.4313 283.7037 13.14502033188058
ONEWEB-0191             
1 48239U 21031AF  25074.85160793  .00000092  00000+0  21421-3 0  9993
2 48239  87.9074  20.8170 0001915  76.3812 283.7531 13.14504177187956
ONEWEB-0195             
1 48240U 21031AG  25074.60025407  .00000249  00000+0  63598-3 0  9995
2 48240  87.9072  20.8650 0001796  66.8373 293.2946 13.14505266187903
ONEWEB-0201             
1 48241U 21031AH  25074.89349126  .00010244  00000+0  27528-1 0  9991
2 48241  87.9074  20.8502 0001765  76.7500 283.3826 13.14595080188170
